{
  "type": "FeatureCollection",
  "features": [
    {
      "type": "Feature",
      "properties": {
        "norad_id": 55973,
        "name": "TIANMU-1 03",
        "group": "weather",
        "lat": 66.65825830729283,
        "lon": -11.100239312631974,
        "alt_km": 435.0737126600434,
        "timestamp": "2025-12-14T09:36:22.677833+00:00",
        "meta_object_name": "TIANMU-1 03",
        "meta_object_id": "2023-039A",
        "meta_epoch": "2025-12-13T15:58:43.135392",
        "meta_mean_motion": 15.4095928,
        "meta_eccentricity": 0.00043497,
        "meta_inclination": 97.5105,
        "meta_ra_of_asc_node": 150.3428,
        "meta_arg_of_pericenter": 58.7577,
        "meta_mean_anomaly": 301.4095,
        "meta_ephemeris_type": 0,
        "meta_classification_type": "U",
        "meta_norad_cat_id": 55973,
        "meta_element_set_no": 999,
        "meta_rev_at_epoch": 15220,
        "meta_bstar": 0.00041049314,
        "meta_mean_motion_dot": 0.00016837,
        "meta_mean_motion_ddot": 0,
        "tle_line1": "1 55973U 23039A   25347.66577703  .00016837  00000+0  41049-3 0  9993",
        "tle_line2": "2 55973  97.5105 150.3428 0004349  58.7577 301.4095 15.40959280152205"
      },
      "geometry": {
        "type": "Point",
        "coordinates": [
          -11.100239312631974,
          66.65825830729283
        ]
      }
    },
    {
      "type": "Feature",
      "properties": {
        "norad_id": 55974,
        "name": "TIANMU-1 04",
        "group": "weather",
        "lat": -47.60656120896733,
        "lon": -38.013646103854555,
        "alt_km": 452.50089432500954,
        "timestamp": "2025-12-14T09:36:22.677843+00:00",
        "meta_object_name": "TIANMU-1 04",
        "meta_object_id": "2023-039B",
        "meta_epoch": "2025-12-13T15:28:49.949184",
        "meta_mean_motion": 15.41296979,
        "meta_eccentricity": 0.00049992,
        "meta_inclination": 97.5037,
        "meta_ra_of_asc_node": 149.5122,
        "meta_arg_of_pericenter": 53.4263,
        "meta_mean_anomaly": 306.7442,
        "meta_ephemeris_type": 0,
        "meta_classification_type": "U",
        "meta_norad_cat_id": 55974,
        "meta_element_set_no": 999,
        "meta_rev_at_epoch": 15220,
        "meta_bstar": 0.00039780714,
        "meta_mean_motion_dot": 0.00016499,
        "meta_mean_motion_ddot": 0,
        "tle_line1": "1 55974U 23039B   25347.64502256  .00016499  00000+0  39781-3 0  9997",
        "tle_line2": "2 55974  97.5037 149.5122 0004999  53.4263 306.7442 15.41296979152200"
      },
      "geometry": {
        "type": "Point",
        "coordinates": [
          -38.013646103854555,
          -47.60656120896733
        ]
      }
    },
    {
      "type": "Feature",
      "properties": {
        "norad_id": 55975,
        "name": "TIANMU-1 05",
        "group": "weather",
        "lat": -75.63002606515683,
        "lon": -60.20437610796212,
        "alt_km": 453.6106488383175,
        "timestamp": "2025-12-14T09:36:22.677854+00:00",
        "meta_object_name": "TIANMU-1 05",
        "meta_object_id": "2023-039C",
        "meta_epoch": "2025-12-13T15:20:52.089792",
        "meta_mean_motion": 15.40916323,
        "meta_eccentricity": 0.00043194,
        "meta_inclination": 97.5083,
        "meta_ra_of_asc_node": 149.9989,
        "meta_arg_of_pericenter": 75.7737,
        "meta_mean_anomaly": 284.3988,
        "meta_ephemeris_type": 0,
        "meta_classification_type": "U",
        "meta_norad_cat_id": 55975,
        "meta_element_set_no": 999,
        "meta_rev_at_epoch": 15218,
        "meta_bstar": 0.00040141403,
        "meta_mean_motion_dot": 0.00016438,
        "meta_mean_motion_ddot": 0,
        "tle_line1": "1 55975U 23039C   25347.63949178  .00016438  00000+0  40141-3 0  9990",
        "tle_line2": "2 55975  97.5083 149.9989 0004319  75.7737 284.3988 15.40916323152180"
      },
      "geometry": {
        "type": "Point",
        "coordinates": [
          -60.20437610796212,
          -75.63002606515683
        ]
      }
    },
    {
      "type": "Feature",
      "properties": {
        "norad_id": 55976,
        "name": "TIANMU-1 06",
        "group": "weather",
        "lat": -36.08712289984795,
        "lon": -34.270637155490896,
        "alt_km": 451.1347980373166,
        "timestamp": "2025-12-14T09:36:22.677866+00:00",
        "meta_object_name": "TIANMU-1 06",
        "meta_object_id": "2023-039D",
        "meta_epoch": "2025-12-13T17:05:24.339264",
        "meta_mean_motion": 15.41351514,
        "meta_eccentricity": 0.00046087,
        "meta_inclination": 97.5096,
        "meta_ra_of_asc_node": 150.5393,
        "meta_arg_of_pericenter": 70.4817,
        "meta_mean_anomaly": 289.6927,
        "meta_ephemeris_type": 0,
        "meta_classification_type": "U",
        "meta_norad_cat_id": 55976,
        "meta_element_set_no": 999,
        "meta_rev_at_epoch": 15221,
        "meta_bstar": 0.00040166866,
        "meta_mean_motion_dot": 0.00016689,
        "meta_mean_motion_ddot": 0,
        "tle_line1": "1 55976U 23039D   25347.71208726  .00016689  00000+0  40167-3 0  9993",
        "tle_line2": "2 55976  97.5096 150.5393 0004608  70.4817 289.6927 15.41351514152215"
      },
      "geometry": {
        "type": "Point",
        "coordinates": [
          -34.270637155490896,
          -36.08712289984795
        ]
      }
    },
    {
      "type": "Feature",
      "properties": {
        "norad_id": 56232,
        "name": "FENGYUN 3G",
        "group": "weather",
        "lat": 16.822353507476077,
        "lon": -126.40600422893081,
        "alt_km": 408.2043690148621,
        "timestamp": "2025-12-14T09:36:22.677876+00:00",
        "meta_object_name": "FENGYUN 3G",
        "meta_object_id": "2023-055A",
        "meta_epoch": "2025-12-13T16:31:58.068192",
        "meta_mean_motion": 15.53721399,
        "meta_eccentricity": 0.00093376,
        "meta_inclination": 49.993,
        "meta_ra_of_asc_node": 222.5568,
        "meta_arg_of_pericenter": 152.7146,
        "meta_mean_anomaly": 207.4314,
        "meta_ephemeris_type": 0,
        "meta_classification_type": "U",
        "meta_norad_cat_id": 56232,
        "meta_element_set_no": 999,
        "meta_rev_at_epoch": 15117,
        "meta_bstar": 0.00053062346,
        "meta_mean_motion_dot": 0.00034392,
        "meta_mean_motion_ddot": 0,
        "tle_line1": "1 56232U 23055A   25347.68886653  .00034392  00000+0  53062-3 0  9993",
        "tle_line2": "2 56232  49.9930 222.5568 0009337 152.7146 207.4314 15.53721399151173"
      },
      "geometry": {
        "type": "Point",
        "coordinates": [
          -126.40600422893081,
          16.822353507476077
        ]
      }
    },
    {
      "type": "Feature",
      "properties": {
        "norad_id": 57166,
        "name": "METEOR-M2 3",
        "group": "weather",
        "lat": 63.462576853055516,
        "lon": -120.36867172872664,
        "alt_km": 806.5360790054629,
        "timestamp": "2025-12-14T09:36:22.677888+00:00",
        "meta_object_name": "METEOR-M2 3",
        "meta_object_id": "2023-091A",
        "meta_epoch": "2025-12-13T16:12:16.338240",
        "meta_mean_motion": 14.24026234,
        "meta_eccentricity": 0.00038548,
        "meta_inclination": 98.6377,
        "meta_ra_of_asc_node": 41.1982,
        "meta_arg_of_pericenter": 6.3835,
        "meta_mean_anomaly": 353.7393,
        "meta_ephemeris_type": 0,
        "meta_classification_type": "U",
        "meta_norad_cat_id": 57166,
        "meta_element_set_no": 999,
        "meta_rev_at_epoch": 12811,
        "meta_bstar": 3.113869e-05,
        "meta_mean_motion_dot": 2.8e-07,
        "meta_mean_motion_ddot": 0,
        "tle_line1": "1 57166U 23091A   25347.67518910  .00000028  00000+0  31139-4 0  9998",
        "tle_line2": "2 57166  98.6377  41.1982 0003854   6.3835 353.7393 14.24026234128111"
      },
      "geometry": {
        "type": "Point",
        "coordinates": [
          -120.36867172872664,
          63.462576853055516
        ]
      }
    },
    {
      "type": "Feature",
      "properties": {
        "norad_id": 57399,
        "name": "TIANMU-1 07",
        "group": "weather",
        "lat": -23.10309341735182,
        "lon": -144.91621620551288,
        "alt_km": 489.29827742609996,
        "timestamp": "2025-12-14T09:36:22.677899+00:00",
        "meta_object_name": "TIANMU-1 07",
        "meta_object_id": "2023-101A",
        "meta_epoch": "2025-12-13T15:25:57.991584",
        "meta_mean_motion": 15.28089589,
        "meta_eccentricity": 0.00055593,
        "meta_inclination": 97.2882,
        "meta_ra_of_asc_node": 37.4729,
        "meta_arg_of_pericenter": 79.3914,
        "meta_mean_anomaly": 280.7952,
        "meta_ephemeris_type": 0,
        "meta_classification_type": "U",
        "meta_norad_cat_id": 57399,
        "meta_element_set_no": 999,
        "meta_rev_at_epoch": 13329,
        "meta_bstar": 0.00032064786,
        "meta_mean_motion_dot": 8.715e-05,
        "meta_mean_motion_ddot": 0,
        "tle_line1": "1 57399U 23101A   25347.64303231  .00008715  00000+0  32065-3 0  9992",
        "tle_line2": "2 57399  97.2882  37.4729 0005559  79.3914 280.7952 15.28089589133296"
      },
      "geometry": {
        "type": "Point",
        "coordinates": [
          -144.91621620551288,
          -23.10309341735182
        ]
      }
    }
  ]
}